{
  "norad_id": 58302,
  "name": "ICEYE-X35",
  "history": [
    {
      "epoch": "2026-03-28T22:46:27.070752Z",
      "apogee_km": 435.69563515240407,
      "perigee_km": 421.3421675869495,
      "latitude_deg": 2.9138290688053348e-05,
      "longitude_deg": 2.72716290235538,
      "height_km": 436.1462691258158,
      "semi_major_axis_km": 6806.655901369676,
      "eccentricity": 0.00105437,
      "inclination_deg": 97.3832,
      "raan_deg": 170.702,
      "arg_perigee_deg": 129.005,
      "mean_anomaly_deg": 231.214,
      "mean_motion_rev_day": 15.4597358
    },
    {
      "epoch": "2026-03-29T04:59:16.304640Z",
      "apogee_km": 435.57144288510335,
      "perigee_km": 421.2735839711977,
      "latitude_deg": -7.364403708340331e-05,
      "longitude_deg": -90.46955157645884,
      "height_km": 435.93764551523793,
      "semi_major_axis_km": 6806.55951342815,
      "eccentricity": 0.0010503,
      "inclination_deg": 97.3832,
      "raan_deg": 170.9656,
      "arg_perigee_deg": 128.0362,
      "mean_anomaly_deg": 232.1836,
      "mean_motion_rev_day": 15.46006419
    },
    {
      "epoch": "2026-03-30T04:17:17.424096Z",
      "apogee_km": 435.20151374595116,
      "perigee_km": 421.04721261507984,
      "latitude_deg": 3.232802921754025e-05,
      "longitude_deg": -79.94273879178692,
      "height_km": 435.31111322417746,
      "semi_major_axis_km": 6806.261363180515,
      "eccentricity": 0.0010398,
      "inclination_deg": 97.3833,
      "raan_deg": 171.954,
      "arg_perigee_deg": 125.1758,
      "mean_anomaly_deg": 235.0467,
      "mean_motion_rev_day": 15.46108005
    },
    {
      "epoch": "2026-03-30T05:50:29.308992Z",
      "apogee_km": 435.1798861966445,
      "perigee_km": 421.03514884033757,
      "latitude_deg": 7.699570833169789e-05,
      "longitude_deg": -103.24005669300719,
      "height_km": 435.25564525008883,
      "semi_major_axis_km": 6806.24451751849,
      "eccentricity": 0.0010391,
      "inclination_deg": 97.3833,
      "raan_deg": 172.02,
      "arg_perigee_deg": 124.822,
      "mean_anomaly_deg": 235.4009,
      "mean_motion_rev_day": 15.46113745
    },
    {
      "epoch": "2026-03-30T13:36:28.342944Z",
      "apogee_km": 435.055086994309,
      "perigee_km": 420.97778372089033,
      "latitude_deg": -2.568734603996145e-05,
      "longitude_deg": 140.27492746739702,
      "height_km": 434.99841499886617,
      "semi_major_axis_km": 6806.1534353576,
      "eccentricity": 0.00103416,
      "inclination_deg": 97.3834,
      "raan_deg": 172.3499,
      "arg_perigee_deg": 123.3804,
      "mean_anomaly_deg": 236.8436,
      "mean_motion_rev_day": 15.46144781
    },
    {
      "epoch": "2026-03-30T22:55:38.364096Z",
      "apogee_km": 434.90130506104197,
      "perigee_km": 420.8830628714104,
      "latitude_deg": 1.434408432210569e-06,
      "longitude_deg": 0.4953333964880875,
      "height_km": 434.7484490496287,
      "semi_major_axis_km": 6806.029183966226,
      "eccentricity": 0.00102984,
      "inclination_deg": 97.3835,
      "raan_deg": 172.7448,
      "arg_perigee_deg": 122.3168,
      "mean_anomaly_deg": 237.908,
      "mean_motion_rev_day": 15.46187121
    },
    {
      "epoch": "2026-03-31T20:40:18.478272Z",
      "apogee_km": 434.60258176868956,
      "perigee_km": 420.6698028893543,
      "latitude_deg": -1.1992202123428452e-05,
      "longitude_deg": 34.35818008349954,
      "height_km": 434.1474691238956,
      "semi_major_axis_km": 6805.773192329022,
      "eccentricity": 0.0010236,
      "inclination_deg": 97.3833,
      "raan_deg": 173.6678,
      "arg_perigee_deg": 119.238,
      "mean_anomaly_deg": 240.9894,
      "mean_motion_rev_day": 15.46274359
    },
    {
      "epoch": "2026-04-01T19:58:05.310624Z",
      "apogee_km": 434.2960254166437,
      "perigee_km": 420.457693534785,
      "latitude_deg": -1.47021093702294e-06,
      "longitude_deg": 44.94509836561622,
      "height_km": 433.56236067051964,
      "semi_major_axis_km": 6805.513859475714,
      "eccentricity": 0.0010167,
      "inclination_deg": 97.3833,
      "raan_deg": 174.6566,
      "arg_perigee_deg": 116.4074,
      "mean_anomaly_deg": 243.822,
      "mean_motion_rev_day": 15.46362744
    },
    {
      "epoch": "2026-04-02T20:48:56.966400Z",
      "apogee_km": 433.7593558790095,
      "perigee_km": 420.21035826158277,
      "latitude_deg": 6.750574425669817e-05,
      "longitude_deg": 32.26349984473878,
      "height_km": 432.6566626263242,
      "semi_major_axis_km": 6805.121857070296,
      "eccentricity": 0.0009955,
      "inclination_deg": 97.3828,
      "raan_deg": 175.7107,
      "arg_perigee_deg": 112.238,
      "mean_anomaly_deg": 247.9927,
      "mean_motion_rev_day": 15.46496361
    },
    {
      "epoch": "2026-04-02T22:22:07.394592Z",
      "apogee_km": 433.71981490628605,
      "perigee_km": 420.1853083789265,
      "latitude_deg": 6.680125416765751e-05,
      "longitude_deg": 8.972173978556977,
      "height_km": 432.60511858168553,
      "semi_major_axis_km": 6805.089561642606,
      "eccentricity": 0.00099444,
      "inclination_deg": 97.3828,
      "raan_deg": 175.7766,
      "arg_perigee_deg": 112.087,
      "mean_anomaly_deg": 248.1437,
      "mean_motion_rev_day": 15.4650737
    },
    {
      "epoch": "2026-04-03T20:06:30.615840Z",
      "apogee_km": 433.29809705885873,
      "perigee_km": 419.91996636051863,
      "latitude_deg": -6.395907315864534e-05,
      "longitude_deg": 42.90561442078768,
      "height_km": 431.8553788357601,
      "semi_major_axis_km": 6804.746031709688,
      "eccentricity": 0.000983,
      "inclination_deg": 97.3826,
      "raan_deg": 176.6996,
      "arg_perigee_deg": 108.6452,
      "mean_anomaly_deg": 251.5865,
      "mean_motion_rev_day": 15.46624482
    },
    {
      "epoch": "2026-04-04T20:57:07.084224Z",
      "apogee_km": 432.8867576423727,
      "perigee_km": 419.65898485266734,
      "latitude_deg": -9.88308245503106e-06,
      "longitude_deg": 30.28847022196384,
      "height_km": 431.0924643000739,
      "semi_major_axis_km": 6804.40987124752,
      "eccentricity": 0.000972,
      "inclination_deg": 97.3822,
      "raan_deg": 177.7547,
      "arg_perigee_deg": 105.0012,
      "mean_anomaly_deg": 255.2314,
      "mean_motion_rev_day": 15.46739096
    },
    {
      "epoch": "2026-04-05T14:01:51.322656Z",
      "apogee_km": 432.6738689476333,
      "perigee_km": 419.473971930418,
      "latitude_deg": 4.871786694361709e-06,
      "longitude_deg": 134.12823258977213,
      "height_km": 430.61999066527864,
      "semi_major_axis_km": 6804.210920439025,
      "eccentricity": 0.00096998,
      "inclination_deg": 97.3822,
      "raan_deg": 178.4802,
      "arg_perigee_deg": 102.5899,
      "mean_anomaly_deg": 257.6436,
      "mean_motion_rev_day": 15.46806935
    },
    {
      "epoch": "2026-04-05T20:14:28.555584Z",
      "apogee_km": 432.5780792086716,
      "perigee_km": 419.41072412017,
      "latitude_deg": 3.766107871127333e-05,
      "longitude_deg": 40.98164099891909,
      "height_km": 430.41544577210675,
      "semi_major_axis_km": 6804.13140166442,
      "eccentricity": 0.0009676,
      "inclination_deg": 97.3821,
      "raan_deg": 178.7438,
      "arg_perigee_deg": 101.5092,
      "mean_anomaly_deg": 258.7245,
      "mean_motion_rev_day": 15.46834051
    },
    {
      "epoch": "2026-04-06T07:06:32.936256Z",
      "apogee_km": 432.4541885323015,
      "perigee_km": 419.31235945348817,
      "latitude_deg": -5.219541721483759e-05,
      "longitude_deg": -122.02122935633378,
      "height_km": 430.14546131896515,
      "semi_major_axis_km": 6804.0202739928945,
      "eccentricity": 0.00096574,
      "inclination_deg": 97.3819,
      "raan_deg": 179.2055,
      "arg_perigee_deg": 100.1218,
      "mean_anomaly_deg": 260.1121,
      "mean_motion_rev_day": 15.46871947
    },
    {
      "epoch": "2026-04-07T14:09:31.616928Z",
      "apogee_km": 432.06566142369775,
      "perigee_km": 419.06242798705716,
      "latitude_deg": 8.972124944503372e-06,
      "longitude_deg": 132.2781933493424,
      "height_km": 429.2966352987604,
      "semi_major_axis_km": 6803.701044705377,
      "eccentricity": 0.0009556,
      "inclination_deg": 97.3816,
      "raan_deg": 180.5246,
      "arg_perigee_deg": 95.5179,
      "mean_anomaly_deg": 264.7161,
      "mean_motion_rev_day": 15.46980817
    },
    {
      "epoch": "2026-04-07T20:22:06.386592Z",
      "apogee_km": 431.9960021989227,
      "perigee_km": 419.01193377561503,
      "latitude_deg": -5.7685315006675076e-05,
      "longitude_deg": 39.142205976065874,
      "height_km": 429.15078323559345,
      "semi_major_axis_km": 6803.640967987269,
      "eccentricity": 0.0009542,
      "inclination_deg": 97.3816,
      "raan_deg": 180.7885,
      "arg_perigee_deg": 94.7657,
      "mean_anomaly_deg": 265.4682,
      "mean_motion_rev_day": 15.47001307
    },
    {
      "epoch": "2026-04-08T14:59:48.952896Z",
      "apogee_km": 431.78022153096117,
      "perigee_km": 418.87826421730006,
      "latitude_deg": 3.902106879676498e-05,
      "longitude_deg": 119.74118661829158,
      "height_km": 428.6814712852643,
      "semi_major_axis_km": 6803.46624287413,
      "eccentricity": 0.00094819,
      "inclination_deg": 97.3815,
      "raan_deg": 181.5799,
      "arg_perigee_deg": 92.1738,
      "mean_anomaly_deg": 268.0598,
      "mean_motion_rev_day": 15.47060902
    },
    {
      "epoch": "2026-04-09T20:29:26.248128Z",
      "apogee_km": 431.42589494808726,
      "perigee_km": 418.69846991759186,
      "latitude_deg": 5.092057885003552e-05,
      "longitude_deg": 37.37752170762295,
      "height_km": 427.8829200313441,
      "semi_major_axis_km": 6803.19918243284,
      "eccentricity": 0.0009354,
      "inclination_deg": 97.3813,
      "raan_deg": 182.8329,
      "arg_perigee_deg": 87.4136,
      "mean_anomaly_deg": 272.8185,
      "mean_motion_rev_day": 15.47151998
    }
  ]
}